QIANFAN-33              
1 61566U 24185Q   25282.27467899  .00000465  00000+0  32665-3 0  9994
2 61566  88.9740  85.9937 0007643 152.4488 207.7096 13.96466987 60168
QIANFAN-34              
1 61567U 24185R   25282.29024104  .00000483  00000+0  30696-3 0  9997
2 61567  88.9718  85.6411 0006569 156.7308 203.4171 14.02218875 60326
QIANFAN-35              
1 61568U 24185S   25282.29528973  .00001071  00000+0  42780-3 0  9992
2 61568  88.9746  84.4419 0008300 127.1255 233.0699 14.27801058 60985
QIANFAN-36              
1 61569U 24185T   25282.30238372  .00000143  00000+0  18851-3 0  9997
2 61569  88.9726  87.7563 0004824 214.9763 145.1074 13.55561777 59198
QIANFAN-37              
1 62238U 24232B   25282.33417942  .00000126  00000+0  17648-3 0  9993
2 62238  89.0007  47.8180 0001122 100.6909 259.4369 13.50969075 90479
QIANFAN-38              
1 62239U 24232C   25282.35890366  .00000117  00000+0  16284-3 0  9996
2 62239  89.0014  47.7270 0014965  28.3025 331.8936 13.50977666 90538
QIANFAN-39              
1 62240U 24232D   25282.32763899  .00000634  00000+0  26314-3 0  9994
2 62240  89.0012  44.6612 0014042 291.5898  68.3799 14.25280993 92211
QIANFAN-40              
1 62241U 24232E   25282.31772498  .00000133  00000+0  18739-3 0  9995
2 62241  89.0043  47.2977 0014239  36.5394 323.6726 13.50977271 90893
